sat21422
1 21422U 91042A   20046.53678213  .00000138  00000-0  11099-4 0  9990
2 21422  82.4993  39.9684 0012622 285.7437  74.2390 14.92107648532553
